[Satellite]
VERSION=1.1
NAME=COSMOS 2432 (719)
NICKNAME=COSMOS 2432 (719)
TLE1=1 32276U 07052B   20157.44439569 -.00000061  00000-0  10000-3 0  9995
TLE2=2 32276  65.9888  29.4095 0010878 338.5967 147.1494  2.13103830 98154
STATUS=0
